{
  "type": "FeatureCollection",
  "features": [
    {
      "type": "Feature",
      "properties": {
        "norad_id": 30217,
        "name": "FENGYUN 1C DEB",
        "group": "fengyun-1c-debris",
        "lat": 40.56081806149419,
        "lon": -46.84112067649453,
        "alt_km": 802.8692486665177,
        "timestamp": "2025-12-02T06:27:53.288329+00:00",
        "meta_object_name": "FENGYUN 1C DEB",
        "meta_object_id": "1999-025WA",
        "meta_epoch": "2025-12-01T16:47:15.084960",
        "meta_mean_motion": 14.2481249,
        "meta_eccentricity": 0.0140404,
        "meta_inclination": 98.4305,
        "meta_ra_of_asc_node": 319.9041,
        "meta_arg_of_pericenter": 131.9372,
        "meta_mean_anomaly": 229.3877,
        "meta_ephemeris_type": 0,
        "meta_classification_type": "U",
        "meta_norad_cat_id": 30217,
        "meta_element_set_no": 999,
        "meta_rev_at_epoch": 97916,
        "meta_bstar": 0.00023041,
        "meta_mean_motion_dot": 5.54e-06,
        "meta_mean_motion_ddot": 0,
        "tle_line1": "1 30217U 99025WA  25335.69948015  .00000554  00000+0  23041-3 0  9994",
        "tle_line2": "2 30217  98.4305 319.9041 0140404 131.9372 229.3877 14.24812490979165"
      },
      "geometry": {
        "type": "Point",
        "coordinates": [
          -46.84112067649453,
          40.56081806149419
        ]
      }
    },
    {
      "type": "Feature",
      "properties": {
        "norad_id": 30218,
        "name": "FENGYUN 1C DEB",
        "group": "fengyun-1c-debris",
        "lat": 57.04995881439388,
        "lon": -100.54081020730217,
        "alt_km": 838.5508745633888,
        "timestamp": "2025-12-02T06:27:53.288339+00:00",
        "meta_object_name": "FENGYUN 1C DEB",
        "meta_object_id": "1999-025WB",
        "meta_epoch": "2025-12-01T18:43:35.471424",
        "meta_mean_motion": 14.28578505,
        "meta_eccentricity": 0.0069631,
        "meta_inclination": 98.9875,
        "meta_ra_of_asc_node": 64.8229,
        "meta_arg_of_pericenter": 285.63,
        "meta_mean_anomaly": 202.4412,
        "meta_ephemeris_type": 0,
        "meta_classification_type": "U",
        "meta_norad_cat_id": 30218,
        "meta_element_set_no": 999,
        "meta_rev_at_epoch": 96952,
        "meta_bstar": 0.0024516,
        "meta_mean_motion_dot": 6.271e-05,
        "meta_mean_motion_ddot": 0,
        "tle_line1": "1 30218U 99025WB  25335.78027166  .00006271  00000+0  24516-2 0  9999",
        "tle_line2": "2 30218  98.9875  64.8229 0069631 285.6300 202.4412 14.28578505969523"
      },
      "geometry": {
        "type": "Point",
        "coordinates": [
          -100.54081020730217,
          57.04995881439388
        ]
      }
    },
    {
      "type": "Feature",
      "properties": {
        "norad_id": 30221,
        "name": "FENGYUN 1C DEB",
        "group": "fengyun-1c-debris",
        "lat": 67.31881612879467,
        "lon": -94.47596570995104,
        "alt_km": 650.9390277368111,
        "timestamp": "2025-12-02T06:27:53.288349+00:00",
        "meta_object_name": "FENGYUN 1C DEB",
        "meta_object_id": "1999-025WE",
        "meta_epoch": "2025-12-01T20:00:00.578592",
        "meta_mean_motion": 14.45779817,
        "meta_eccentricity": 0.0145853,
        "meta_inclination": 98.9571,
        "meta_ra_of_asc_node": 62.8917,
        "meta_arg_of_pericenter": 73.766,
        "meta_mean_anomaly": 287.9521,
        "meta_ephemeris_type": 0,
        "meta_classification_type": "U",
        "meta_norad_cat_id": 30221,
        "meta_element_set_no": 999,
        "meta_rev_at_epoch": 99243,
        "meta_bstar": 0.00024965,
        "meta_mean_motion_dot": 9.55e-06,
        "meta_mean_motion_ddot": 0,
        "tle_line1": "1 30221U 99025WE  25335.83334003  .00000955  00000+0  24965-3 0  9992",
        "tle_line2": "2 30221  98.9571  62.8917 0145853  73.7660 287.9521 14.45779817992431"
      },
      "geometry": {
        "type": "Point",
        "coordinates": [
          -94.47596570995104,
          67.31881612879467
        ]
      }
    },
    {
      "type": "Feature",
      "properties": {
        "norad_id": 30222,
        "name": "FENGYUN 1C DEB",
        "group": "fengyun-1c-debris",
        "lat": -36.618140235643715,
        "lon": -176.7069458279213,
        "alt_km": 910.3177879303876,
        "timestamp": "2025-12-02T06:27:53.288359+00:00",
        "meta_object_name": "FENGYUN 1C DEB",
        "meta_object_id": "1999-025WF",
        "meta_epoch": "2025-12-01T20:00:15.352992",
        "meta_mean_motion": 14.04072676,
        "meta_eccentricity": 0.0038277,
        "meta_inclination": 98.8433,
        "meta_ra_of_asc_node": 9.5126,
        "meta_arg_of_pericenter": 67.0809,
        "meta_mean_anomaly": 107.8559,
        "meta_ephemeris_type": 0,
        "meta_classification_type": "U",
        "meta_norad_cat_id": 30222,
        "meta_element_set_no": 999,
        "meta_rev_at_epoch": 96685,
        "meta_bstar": 0.00013785,
        "meta_mean_motion_dot": 1.77e-06,
        "meta_mean_motion_ddot": 0,
        "tle_line1": "1 30222U 99025WF  25335.83351103  .00000177  00000+0  13785-3 0  9997",
        "tle_line2": "2 30222  98.8433   9.5126 0038277  67.0809 107.8559 14.04072676966852"
      },
      "geometry": {
        "type": "Point",
        "coordinates": [
          -176.7069458279213,
          -36.618140235643715
        ]
      }
    },
    {
      "type": "Feature",
      "properties": {
        "norad_id": 30224,
        "name": "FENGYUN 1C DEB",
        "group": "fengyun-1c-debris",
        "lat": -32.80962941894689,
        "lon": -171.36981370478514,
        "alt_km": 1010.7251768403648,
        "timestamp": "2025-12-02T06:27:53.288369+00:00",
        "meta_object_name": "FENGYUN 1C DEB",
        "meta_object_id": "1999-025WH",
        "meta_epoch": "2025-12-01T16:11:29.359104",
        "meta_mean_motion": 13.89851315,
        "meta_eccentricity": 0.0111528,
        "meta_inclination": 99.4852,
        "meta_ra_of_asc_node": 14.2116,
        "meta_arg_of_pericenter": 13.0116,
        "meta_mean_anomaly": 106.612,
        "meta_ephemeris_type": 0,
        "meta_classification_type": "U",
        "meta_norad_cat_id": 30224,
        "meta_element_set_no": 999,
        "meta_rev_at_epoch": 95587,
        "meta_bstar": 0.00033872,
        "meta_mean_motion_dot": 3.91e-06,
        "meta_mean_motion_ddot": 0,
        "tle_line1": "1 30224U 99025WH  25335.67464536  .00000391  00000+0  33872-3 0  9993",
        "tle_line2": "2 30224  99.4852  14.2116 0111528  13.0116 106.6120 13.89851315955879"
      },
      "geometry": {
        "type": "Point",
        "coordinates": [
          -171.36981370478514,
          -32.80962941894689
        ]
      }
    },
    {
      "type": "Feature",
      "properties": {
        "norad_id": 30225,
        "name": "FENGYUN 1C DEB",
        "group": "fengyun-1c-debris",
        "lat": 28.30178564560344,
        "lon": -171.94755374488565,
        "alt_km": 781.1973414095282,
        "timestamp": "2025-12-02T06:27:53.288379+00:00",
        "meta_object_name": "FENGYUN 1C DEB",
        "meta_object_id": "1999-025WJ",
        "meta_epoch": "2025-12-01T13:29:57.746688",
        "meta_mean_motion": 14.1517221,
        "meta_eccentricity": 0.01004662,
        "meta_inclination": 98.6613,
        "meta_ra_of_asc_node": 2.6579,
        "meta_arg_of_pericenter": 117.6244,
        "meta_mean_anomaly": 33.6239,
        "meta_ephemeris_type": 0,
        "meta_classification_type": "U",
        "meta_norad_cat_id": 30225,
        "meta_element_set_no": 999,
        "meta_rev_at_epoch": 97378,
        "meta_bstar": 0.00018384218,
        "meta_mean_motion_dot": 3.33e-06,
        "meta_mean_motion_ddot": 0,
        "tle_line1": "1 30225U 99025WJ  25335.56247392  .00000333  00000+0  18384-3 0  9998",
        "tle_line2": "2 30225  98.6613   2.6579 0100466 117.6244  33.6239 14.15172210973782"
      },
      "geometry": {
        "type": "Point",
        "coordinates": [
          -171.94755374488565,
          28.30178564560344
        ]
      }
    },
    {
      "type": "Feature",
      "properties": {
        "norad_id": 30229,
        "name": "FENGYUN 1C DEB",
        "group": "fengyun-1c-debris",
        "lat": 52.39346925710242,
        "lon": -133.11168198530092,
        "alt_km": 671.5673926389991,
        "timestamp": "2025-12-02T06:27:53.288389+00:00",
        "meta_object_name": "FENGYUN 1C DEB",
        "meta_object_id": "1999-025WN",
        "meta_epoch": "2025-12-01T10:13:25.639680",
        "meta_mean_motion": 14.60222944,
        "meta_eccentricity": 0.00381019,
        "meta_inclination": 99.0645,
        "meta_ra_of_asc_node": 34.0053,
        "meta_arg_of_pericenter": 75.1663,
        "meta_mean_anomaly": 300.1485,
        "meta_ephemeris_type": 0,
        "meta_classification_type": "U",
        "meta_norad_cat_id": 30229,
        "meta_element_set_no": 999,
        "meta_rev_at_epoch": 98761,
        "meta_bstar": 0.0022376024,
        "meta_mean_motion_dot": 0.0001086,
        "meta_mean_motion_ddot": 0,
        "tle_line1": "1 30229U 99025WN  25335.42599120  .00010860  00000+0  22376-2 0  9997",
        "tle_line2": "2 30229  99.0645  34.0053 0038101  75.1663 300.1485 14.60222944987613"
      },
      "geometry": {
        "type": "Point",
        "coordinates": [
          -133.11168198530092,
          52.39346925710242
        ]
      }
    }
  ]
}